[{"OBJECT_NAME":"COSMOS 2437","OBJECT_ID":"2008-025B","EPOCH":"2026-03-09T22:53:31.166016","MEAN_MOTION":12.42757373,"ECCENTRICITY":0.00203206,"INCLINATION":82.4982,"RA_OF_ASC_NODE":59.1511,"ARG_OF_PERICENTER":182.6934,"MEAN_ANOMALY":270.119,"EPHEMERIS_TYPE":0,"CLASSIFICATION_TYPE":"U","NORAD_CAT_ID":32954,"ELEMENT_SET_NO":999,"REV_AT_EPOCH":80704,"BSTAR":0.00093092116,"MEAN_MOTION_DOT":1.39e-6,"MEAN_MOTION_DDOT":0},{"OBJECT_NAME":"DELTA 2 R\/B","OBJECT_ID":"1991-037B","EPOCH":"2026-03-09T23:18:31.697280","MEAN_MOTION":13.81159977,"ECCENTRICITY":0.07839021,"INCLINATION":24.9849,"RA_OF_ASC_NODE":350.254,"ARG_OF_PERICENTER":243.776,"MEAN_ANOMALY":108.0108,"EPHEMERIS_TYPE":0,"CLASSIFICATION_TYPE":"U","NORAD_CAT_ID":21393,"ELEMENT_SET_NO":999,"REV_AT_EPOCH":68485,"BSTAR":0.00038559843,"MEAN_MOTION_DOT":5.764e-5,"MEAN_MOTION_DDOT":0}]
